SMDC ONE 2.4            
1 39469U 13072H   26068.55980652  .00015821  00000+0  65974-3 0  9996
2 39469 120.4883 328.0945 0137633 267.6479  90.8828 15.15767863102719
STARLINK-5448           
1 54770U 22175N   26068.27033929 -.00009968  00000+0 -60855-3 0  9997
2 54770  53.2204  31.1864 0001799  93.7584 266.3614 15.08870714180060
