[{"OBJECT_NAME":"SMDC ONE 2.4","OBJECT_ID":"2013-072H","EPOCH":"2026-03-09T13:26:07.283328","MEAN_MOTION":15.15767863,"ECCENTRICITY":0.0137633,"INCLINATION":120.4883,"RA_OF_ASC_NODE":328.0945,"ARG_OF_PERICENTER":267.6479,"MEAN_ANOMALY":90.8828,"EPHEMERIS_TYPE":0,"CLASSIFICATION_TYPE":"U","NORAD_CAT_ID":39469,"ELEMENT_SET_NO":999,"REV_AT_EPOCH":10271,"BSTAR":0.00065974,"MEAN_MOTION_DOT":0.00015821,"MEAN_MOTION_DDOT":0},{"OBJECT_NAME":"STARLINK-5448","OBJECT_ID":"2022-175N","EPOCH":"2026-03-09T06:29:17.314656","MEAN_MOTION":15.08870714,"ECCENTRICITY":0.00017997,"INCLINATION":53.2204,"RA_OF_ASC_NODE":31.1864,"ARG_OF_PERICENTER":93.7584,"MEAN_ANOMALY":266.3614,"EPHEMERIS_TYPE":0,"CLASSIFICATION_TYPE":"U","NORAD_CAT_ID":54770,"ELEMENT_SET_NO":999,"REV_AT_EPOCH":18006,"BSTAR":-0.00060855363,"MEAN_MOTION_DOT":-9.968e-5,"MEAN_MOTION_DDOT":0}]
